[
  {
    "pincode": "226023",
    "office": "32 Bn PAC SO Lucknow",
    "district": "LUCKNOW",
    "state": "Uttar Pradesh"
  },
  {
    "pincode": "226004",
    "office": "A N L Colony SO",
    "district": "LUCKNOW",
    "state": "Uttar Pradesh"
  },
  {
    "pincode": "226303",
    "office": "Adampur Janubi BO",
    "district": "LUCKNOW",
    "state": "Uttar Pradesh"
  },
  {
    "pincode": "226005",
    "office": "Adarsh Nagar SO",
    "district": "LUCKNOW",
    "state": "Uttar Pradesh"
  },
  {
    "pincode": "226401",
    "office": "Ain BO",
    "district": "LUCKNOW",
    "state": "Uttar Pradesh"
  },
  {
    "pincode": "226004",
    "office": "Aishbagh SO",
    "district": "LUCKNOW",
    "state": "Uttar Pradesh"
  },
  {
    "pincode": "226203",
    "office": "Akariakalan BO",
    "district": "LUCKNOW",
    "state": "Uttar Pradesh"
  },
  {
    "pincode": "226005",
    "office": "Alambagh SO",
    "district": "LUCKNOW",
    "state": "Uttar Pradesh"
  },
  {
    "pincode": "226017",
    "office": "Alamnagar BO",
    "district": "LUCKNOW",
    "state": "Uttar Pradesh"
  },
  {
    "pincode": "226024",
    "office": "Aliganj Extension SO",
    "district": "LUCKNOW",
    "state": "Uttar Pradesh"
  },
  {
    "pincode": "226024",
    "office": "Aliganj SO",
    "district": "LUCKNOW",
    "state": "Uttar Pradesh"
  },
  {
    "pincode": "226203",
    "office": "Amaniganj BO",
    "district": "LUCKNOW",
    "state": "Uttar Pradesh"
  },
  {
    "pincode": "226009",
    "office": "AMAUSI AD SO",
    "district": "LUCKNOW",
    "state": "Uttar Pradesh"
  },
  {
    "pincode": "226008",
    "office": "Amausi BO",
    "district": "LUCKNOW",
    "state": "Uttar Pradesh"
  },
  {
    "pincode": "226003",
    "office": "Amberganj BO",
    "district": "LUCKNOW",
    "state": "Uttar Pradesh"
  },
  {
    "pincode": "226501",
    "office": "Amethi BO",
    "district": "LUCKNOW",
    "state": "Uttar Pradesh"
  },
  {
    "pincode": "226101",
    "office": "Amethia Salempur BO",
    "district": "LUCKNOW",
    "state": "Uttar Pradesh"
  },
  {
    "pincode": "226018",
    "office": "Aminabad Park SO",
    "district": "LUCKNOW",
    "state": "Uttar Pradesh"
  },
  {
    "pincode": "226028",
    "office": "Amraigaon BO",
    "district": "LUCKNOW",
    "state": "Uttar Pradesh"
  },
  {
    "pincode": "226005",
    "office": "Anand Nagar SO",
    "district": "LUCKNOW",
    "state": "Uttar Pradesh"
  },
  {
    "pincode": "226028",
    "office": "Anaura Kalan BO",
    "district": "LUCKNOW",
    "state": "Uttar Pradesh"
  },
  {
    "pincode": "226104",
    "office": "Ant Garhi",
    "district": "LUCKNOW",
    "state": "Uttar Pradesh"
  },
  {
    "pincode": "226001",
    "office": "AP Sabha SO",
    "district": "LUCKNOW",
    "state": "Uttar Pradesh"
  },
  {
    "pincode": "226002",
    "office": "Arjunganj BO",
    "district": "LUCKNOW",
    "state": "Uttar Pradesh"
  },
  {
    "pincode": "226203",
    "office": "Arjunpur BO",
    "district": "LUCKNOW",
    "state": "Uttar Pradesh"
  },
  {
    "pincode": "226004",
    "office": "Arya Nagar SO",
    "district": "LUCKNOW",
    "state": "Uttar Pradesh"
  },
  {
    "pincode": "226012",
    "office": "Ashiana Colony SO",
    "district": "LUCKNOW",
    "state": "Uttar Pradesh"
  },
  {
    "pincode": "226201",
    "office": "ASTI BO",
    "district": "LUCKNOW",
    "state": "Uttar Pradesh"
  },
  {
    "pincode": "226104",
    "office": "Atari BO",
    "district": "LUCKNOW",
    "state": "Uttar Pradesh"
  },
  {
    "pincode": "226203",
    "office": "Ateswa BO",
    "district": "LUCKNOW",
    "state": "Uttar Pradesh"
  },
  {
    "pincode": "226401",
    "office": "Aurawan BO",
    "district": "LUCKNOW",
    "state": "Uttar Pradesh"
  },
  {
    "pincode": "226017",
    "office": "Avas Vikas Colony SO Lucknow",
    "district": "LUCKNOW",
    "state": "Uttar Pradesh"
  },
  {
    "pincode": "226025",
    "office": "B R A University SO",
    "district": "LUCKNOW",
    "state": "Uttar Pradesh"
  },
  {
    "pincode": "226104",
    "office": "Baddaiyan BO",
    "district": "LUCKNOW",
    "state": "Uttar Pradesh"
  },
  {
    "pincode": "226203",
    "office": "Bahargaon BO",
    "district": "LUCKNOW",
    "state": "Uttar Pradesh"
  },
  {
    "pincode": "226303",
    "office": "Bahrauli BO",
    "district": "LUCKNOW",
    "state": "Uttar Pradesh"
  },
  {
    "pincode": "226104",
    "office": "Bahraura BO",
    "district": "LUCKNOW",
    "state": "Uttar Pradesh"
  },
  {
    "pincode": "226101",
    "office": "Bahroo BO",
    "district": "LUCKNOW",
    "state": "Uttar Pradesh"
  },
  {
    "pincode": "226002",
    "office": "Bakkash BO",
    "district": "LUCKNOW",
    "state": "Uttar Pradesh"
  },
  {
    "pincode": "226201",
    "office": "Bakshi Ka Talab SO",
    "district": "LUCKNOW",
    "state": "Uttar Pradesh"
  },
  {
    "pincode": "226018",
    "office": "Balrampur Hospital SO",
    "district": "LUCKNOW",
    "state": "Uttar Pradesh"
  },
  {
    "pincode": "226401",
    "office": "Bani BO",
    "district": "LUCKNOW",
    "state": "Uttar Pradesh"
  },
  {
    "pincode": "226401",
    "office": "Banthara SO Lucknow",
    "district": "LUCKNOW",
    "state": "Uttar Pradesh"
  },
  {
    "pincode": "226101",
    "office": "Baragaon BO",
    "district": "LUCKNOW",
    "state": "Uttar Pradesh"
  },
  {
    "pincode": "226002",
    "office": "Barauna BO",
    "district": "LUCKNOW",
    "state": "Uttar Pradesh"
  },
  {
    "pincode": "226101",
    "office": "Barawan Kalan BO",
    "district": "LUCKNOW",
    "state": "Uttar Pradesh"
  },
  {
    "pincode": "226005",
    "office": "Barha SO",
    "district": "LUCKNOW",
    "state": "Uttar Pradesh"
  },
  {
    "pincode": "226301",
    "office": "Barwalia BO",
    "district": "LUCKNOW",
    "state": "Uttar Pradesh"
  },
  {
    "pincode": "226026",
    "office": "BASHA BO",
    "district": "LUCKNOW",
    "state": "Uttar Pradesh"
  },
  {
    "pincode": "226021",
    "office": "Batha Sabauli BO",
    "district": "LUCKNOW",
    "state": "Uttar Pradesh"
  },
  {
    "pincode": "226201",
    "office": "Bauromau BO",
    "district": "LUCKNOW",
    "state": "Uttar Pradesh"
  },
  {
    "pincode": "226104",
    "office": "Bazargaon BO",
    "district": "LUCKNOW",
    "state": "Uttar Pradesh"
  },
  {
    "pincode": "226104",
    "office": "Beerpur BO",
    "district": "LUCKNOW",
    "state": "Uttar Pradesh"
  },
  {
    "pincode": "226501",
    "office": "Begariya Mau BO",
    "district": "LUCKNOW",
    "state": "Uttar Pradesh"
  },
  {
    "pincode": "226026",
    "office": "Behta BO",
    "district": "LUCKNOW",
    "state": "Uttar Pradesh"
  },
  {
    "pincode": "226401",
    "office": "Benti BO",
    "district": "LUCKNOW",
    "state": "Uttar Pradesh"
  },
  {
    "pincode": "226301",
    "office": "Bhadeswa BO",
    "district": "LUCKNOW",
    "state": "Uttar Pradesh"
  },
  {
    "pincode": "226002",
    "office": "Bhadrukh BO",
    "district": "LUCKNOW",
    "state": "Uttar Pradesh"
  },
  {
    "pincode": "226102",
    "office": "Bhadwana BO",
    "district": "LUCKNOW",
    "state": "Uttar Pradesh"
  },
  {
    "pincode": "226104",
    "office": "Bhagwantpur BO",
    "district": "LUCKNOW",
    "state": "Uttar Pradesh"
  },
  {
    "pincode": "226401",
    "office": "Bhatgaon BO",
    "district": "LUCKNOW",
    "state": "Uttar Pradesh"
  },
  {
    "pincode": "226201",
    "office": "Bhauli BO",
    "district": "LUCKNOW",
    "state": "Uttar Pradesh"
  },
  {
    "pincode": "226301",
    "office": "Bhilampur BO",
    "district": "LUCKNOW",
    "state": "Uttar Pradesh"
  },
  {
    "pincode": "226203",
    "office": "Bibipur BO",
    "district": "LUCKNOW",
    "state": "Uttar Pradesh"
  },
  {
    "pincode": "226002",
    "office": "Bijnaur BO",
    "district": "LUCKNOW",
    "state": "Uttar Pradesh"
  },
  {
    "pincode": "226004",
    "office": "Blunt Square SO",
    "district": "LUCKNOW",
    "state": "Uttar Pradesh"
  },
  {
    "pincode": "226002",
    "office": "C B Lines SO",
    "district": "LUCKNOW",
    "state": "Uttar Pradesh"
  },
  {
    "pincode": "226008",
    "office": "C E School BO",
    "district": "LUCKNOW",
    "state": "Uttar Pradesh"
  },
  {
    "pincode": "226001",
    "office": "Canal Colony SO",
    "district": "LUCKNOW",
    "state": "Uttar Pradesh"
  },
  {
    "pincode": "226002",
    "office": "Chakganjaria BO",
    "district": "LUCKNOW",
    "state": "Uttar Pradesh"
  },
  {
    "pincode": "226024",
    "office": "Chandganj SO",
    "district": "LUCKNOW",
    "state": "Uttar Pradesh"
  },
  {
    "pincode": "226002",
    "office": "Chandrawal BO",
    "district": "LUCKNOW",
    "state": "Uttar Pradesh"
  },
  {
    "pincode": "226004",
    "office": "Charbagh SO",
    "district": "LUCKNOW",
    "state": "Uttar Pradesh"
  },
  {
    "pincode": "226303",
    "office": "Chatauni BO",
    "district": "LUCKNOW",
    "state": "Uttar Pradesh"
  },
  {
    "pincode": "226003",
    "office": "Chaupatiyan BO",
    "district": "LUCKNOW",
    "state": "Uttar Pradesh"
  },
  {
    "pincode": "226028",
    "office": "Chinhat SO",
    "district": "LUCKNOW",
    "state": "Uttar Pradesh"
  },
  {
    "pincode": "226015",
    "office": "Cimap SO",
    "district": "LUCKNOW",
    "state": "Uttar Pradesh"
  },
  {
    "pincode": "226001",
    "office": "CPMG Campus SO",
    "district": "LUCKNOW",
    "state": "Uttar Pradesh"
  },
  {
    "pincode": "226002",
    "office": "CRPF Bijnore SO Lucknow",
    "district": "LUCKNOW",
    "state": "Uttar Pradesh"
  },
  {
    "pincode": "226005",
    "office": "CW Workshop SO",
    "district": "LUCKNOW",
    "state": "Uttar Pradesh"
  },
  {
    "pincode": "226020",
    "office": "D M Road SO",
    "district": "LUCKNOW",
    "state": "Uttar Pradesh"
  },
  {
    "pincode": "226002",
    "office": "D S Bazar SO",
    "district": "LUCKNOW",
    "state": "Uttar Pradesh"
  },
  {
    "pincode": "226020",
    "office": "Daliganj SO",
    "district": "LUCKNOW",
    "state": "Uttar Pradesh"
  },
  {
    "pincode": "226001",
    "office": "Darul Safa SO",
    "district": "LUCKNOW",
    "state": "Uttar Pradesh"
  },
  {
    "pincode": "226103",
    "office": "Daulatpur BO",
    "district": "LUCKNOW",
    "state": "Uttar Pradesh"
  },
  {
    "pincode": "226302",
    "office": "Dayalpur BO",
    "district": "LUCKNOW",
    "state": "Uttar Pradesh"
  },
  {
    "pincode": "226301",
    "office": "Deoti BO",
    "district": "LUCKNOW",
    "state": "Uttar Pradesh"
  },
  {
    "pincode": "226102",
    "office": "Dhendhemau BO",
    "district": "LUCKNOW",
    "state": "Uttar Pradesh"
  },
  {
    "pincode": "226013",
    "office": "Diguria BO",
    "district": "LUCKNOW",
    "state": "Uttar Pradesh"
  },
  {
    "pincode": "226102",
    "office": "Dilawarnagar BO",
    "district": "LUCKNOW",
    "state": "Uttar Pradesh"
  },
  {
    "pincode": "226002",
    "office": "Dilkusha SO",
    "district": "LUCKNOW",
    "state": "Uttar Pradesh"
  },
  {
    "pincode": "226101",
    "office": "Dona BO",
    "district": "LUCKNOW",
    "state": "Uttar Pradesh"
  },
  {
    "pincode": "226202",
    "office": "FFTC INDAURABAGH SO",
    "district": "LUCKNOW",
    "state": "Uttar Pradesh"
  },
  {
    "pincode": "226104",
    "office": "Gahdon BO",
    "district": "LUCKNOW",
    "state": "Uttar Pradesh"
  },
  {
    "pincode": "226018",
    "office": "Ganeshganj SO",
    "district": "LUCKNOW",
    "state": "Uttar Pradesh"
  },
  {
    "pincode": "226401",
    "office": "Garhi Chunauti BO",
    "district": "LUCKNOW",
    "state": "Uttar Pradesh"
  },
  {
    "pincode": "226103",
    "office": "Gaunda BO",
    "district": "LUCKNOW",
    "state": "Uttar Pradesh"
  },
  {
    "pincode": "226013",
    "office": "Ghaila BO",
    "district": "LUCKNOW",
    "state": "Uttar Pradesh"
  },
  {
    "pincode": "226016",
    "office": "Ghazipur SO Lucknow",
    "district": "LUCKNOW",
    "state": "Uttar Pradesh"
  },
  {
    "pincode": "226028",
    "office": "Goila BO",
    "district": "LUCKNOW",
    "state": "Uttar Pradesh"
  },
  {
    "pincode": "226001",
    "office": "Gokhley Marg SO",
    "district": "LUCKNOW",
    "state": "Uttar Pradesh"
  },
  {
    "pincode": "226018",
    "office": "Golaganj SO",
    "district": "LUCKNOW",
    "state": "Uttar Pradesh"
  },
  {
    "pincode": "226010",
    "office": "Gomti Nagar SO",
    "district": "LUCKNOW",
    "state": "Uttar Pradesh"
  },
  {
    "pincode": "226010",
    "office": "Gomtinagar Vistar SO",
    "district": "LUCKNOW",
    "state": "Uttar Pradesh"
  },
  {
    "pincode": "226104",
    "office": "Gopramau BO",
    "district": "LUCKNOW",
    "state": "Uttar Pradesh"
  },
  {
    "pincode": "226501",
    "office": "Gosainganj SO",
    "district": "LUCKNOW",
    "state": "Uttar Pradesh"
  },
  {
    "pincode": "226026",
    "office": "Gudamba BO",
    "district": "LUCKNOW",
    "state": "Uttar Pradesh"
  },
  {
    "pincode": "226004",
    "office": "Gurdwara SO",
    "district": "LUCKNOW",
    "state": "Uttar Pradesh"
  },
  {
    "pincode": "226010",
    "office": "H C Bench SO",
    "district": "LUCKNOW",
    "state": "Uttar Pradesh"
  },
  {
    "pincode": "226006",
    "office": "H E School SO",
    "district": "LUCKNOW",
    "state": "Uttar Pradesh"
  },
  {
    "pincode": "226016",
    "office": "Hal SO Lucknow",
    "district": "LUCKNOW",
    "state": "Uttar Pradesh"
  },
  {
    "pincode": "226401",
    "office": "Harauni BO",
    "district": "LUCKNOW",
    "state": "Uttar Pradesh"
  },
  {
    "pincode": "226002",
    "office": "Hasanpur Keoli BO",
    "district": "LUCKNOW",
    "state": "Uttar Pradesh"
  },
  {
    "pincode": "226003",
    "office": "Hasnain Market SO",
    "district": "LUCKNOW",
    "state": "Uttar Pradesh"
  },
  {
    "pincode": "226501",
    "office": "HASNAPUR BO",
    "district": "LUCKNOW",
    "state": "Uttar Pradesh"
  },
  {
    "pincode": "226003",
    "office": "Hussainabad SO",
    "district": "LUCKNOW",
    "state": "Uttar Pradesh"
  },
  {
    "pincode": "226013",
    "office": "IIM Lucknow SO",
    "district": "LUCKNOW",
    "state": "Uttar Pradesh"
  },
  {
    "pincode": "226026",
    "office": "IIT Dasauli SO",
    "district": "LUCKNOW",
    "state": "Uttar Pradesh"
  },
  {
    "pincode": "226203",
    "office": "Indara BO",
    "district": "LUCKNOW",
    "state": "Uttar Pradesh"
  },
  {
    "pincode": "226016",
    "office": "Indira Nagar SO",
    "district": "LUCKNOW",
    "state": "Uttar Pradesh"
  },
  {
    "pincode": "226016",
    "office": "Indiranagar Sec14 SO",
    "district": "LUCKNOW",
    "state": "Uttar Pradesh"
  },
  {
    "pincode": "226016",
    "office": "Indiranagar Sec18 SO",
    "district": "LUCKNOW",
    "state": "Uttar Pradesh"
  },
  {
    "pincode": "226016",
    "office": "Indiranagar Sec21 SO",
    "district": "LUCKNOW",
    "state": "Uttar Pradesh"
  },
  {
    "pincode": "226019",
    "office": "Industria Area Chinhat SO",
    "district": "LUCKNOW",
    "state": "Uttar Pradesh"
  },
  {
    "pincode": "226009",
    "office": "Industrial Area SO",
    "district": "LUCKNOW",
    "state": "Uttar Pradesh"
  },
  {
    "pincode": "226008",
    "office": "Int Gaon BO",
    "district": "LUCKNOW",
    "state": "Uttar Pradesh"
  },
  {
    "pincode": "226203",
    "office": "Itaunja SO",
    "district": "LUCKNOW",
    "state": "Uttar Pradesh"
  },
  {
    "pincode": "226301",
    "office": "Jabrauli BO",
    "district": "LUCKNOW",
    "state": "Uttar Pradesh"
  },
  {
    "pincode": "226201",
    "office": "Jagdishpur BO",
    "district": "LUCKNOW",
    "state": "Uttar Pradesh"
  },
  {
    "pincode": "226301",
    "office": "Jaitikhera BO",
    "district": "LUCKNOW",
    "state": "Uttar Pradesh"
  },
  {
    "pincode": "226203",
    "office": "Jamkhanwa BO",
    "district": "LUCKNOW",
    "state": "Uttar Pradesh"
  },
  {
    "pincode": "226103",
    "office": "Jamolia BO",
    "district": "LUCKNOW",
    "state": "Uttar Pradesh"
  },
  {
    "pincode": "226031",
    "office": "Jankipuram Extension SO",
    "district": "LUCKNOW",
    "state": "Uttar Pradesh"
  },
  {
    "pincode": "226021",
    "office": "Jankipuram SO",
    "district": "LUCKNOW",
    "state": "Uttar Pradesh"
  },
  {
    "pincode": "226001",
    "office": "Jawahar Bhawan SO",
    "district": "LUCKNOW",
    "state": "Uttar Pradesh"
  },
  {
    "pincode": "226103",
    "office": "Jindaur BO",
    "district": "LUCKNOW",
    "state": "Uttar Pradesh"
  },
  {
    "pincode": "226028",
    "office": "Juggaur BO",
    "district": "LUCKNOW",
    "state": "Uttar Pradesh"
  },
  {
    "pincode": "226102",
    "office": "Kahla BO",
    "district": "LUCKNOW",
    "state": "Uttar Pradesh"
  },
  {
    "pincode": "226101",
    "office": "Kakori SO",
    "district": "LUCKNOW",
    "state": "Uttar Pradesh"
  },
  {
    "pincode": "226102",
    "office": "Kakrabad BO",
    "district": "LUCKNOW",
    "state": "Uttar Pradesh"
  },
  {
    "pincode": "226301",
    "office": "Kalli Pacchim BO",
    "district": "LUCKNOW",
    "state": "Uttar Pradesh"
  },
  {
    "pincode": "226022",
    "office": "Kalyanpur SO Lucknow",
    "district": "LUCKNOW",
    "state": "Uttar Pradesh"
  },
  {
    "pincode": "226201",
    "office": "Kamlabad Badauli BO",
    "district": "LUCKNOW",
    "state": "Uttar Pradesh"
  },
  {
    "pincode": "226301",
    "office": "Kankaha BO",
    "district": "LUCKNOW",
    "state": "Uttar Pradesh"
  },
  {
    "pincode": "226303",
    "office": "Karora BO",
    "district": "LUCKNOW",
    "state": "Uttar Pradesh"
  },
  {
    "pincode": "226501",
    "office": "KASIMPUR BIRUHA  BO",
    "district": "LUCKNOW",
    "state": "Uttar Pradesh"
  },
  {
    "pincode": "226102",
    "office": "Kasmandi Kalan BO",
    "district": "LUCKNOW",
    "state": "Uttar Pradesh"
  },
  {
    "pincode": "226102",
    "office": "Kasmandi Khurd BO",
    "district": "LUCKNOW",
    "state": "Uttar Pradesh"
  },
  {
    "pincode": "226102",
    "office": "Katauli BO",
    "district": "LUCKNOW",
    "state": "Uttar Pradesh"
  },
  {
    "pincode": "226303",
    "office": "Keoli BO",
    "district": "LUCKNOW",
    "state": "Uttar Pradesh"
  },
  {
    "pincode": "226101",
    "office": "Khalispur BO",
    "district": "LUCKNOW",
    "state": "Uttar Pradesh"
  },
  {
    "pincode": "226104",
    "office": "Khandsara BO",
    "district": "LUCKNOW",
    "state": "Uttar Pradesh"
  },
  {
    "pincode": "226002",
    "office": "Kharika BO",
    "district": "LUCKNOW",
    "state": "Uttar Pradesh"
  },
  {
    "pincode": "226101",
    "office": "Khushalganj BO",
    "district": "LUCKNOW",
    "state": "Uttar Pradesh"
  },
  {
    "pincode": "226201",
    "office": "Kotwa BO",
    "district": "LUCKNOW",
    "state": "Uttar Pradesh"
  },
  {
    "pincode": "226203",
    "office": "Kumharawan BO",
    "district": "LUCKNOW",
    "state": "Uttar Pradesh"
  },
  {
    "pincode": "226301",
    "office": "Kushmaura BO",
    "district": "LUCKNOW",
    "state": "Uttar Pradesh"
  },
  {
    "pincode": "226001",
    "office": "Lalbagh SO Lucknow",
    "district": "LUCKNOW",
    "state": "Uttar Pradesh"
  },
  {
    "pincode": "226028",
    "office": "Laulai BO",
    "district": "LUCKNOW",
    "state": "Uttar Pradesh"
  },
  {
    "pincode": "226012",
    "office": "LDA Colony SO",
    "district": "LUCKNOW",
    "state": "Uttar Pradesh"
  },
  {
    "pincode": "226005",
    "office": "LOCOMOTIVE WORKSHOP SO",
    "district": "LUCKNOW",
    "state": "Uttar Pradesh"
  },
  {
    "pincode": "226020",
    "office": "Loni Katra SO",
    "district": "LUCKNOW",
    "state": "Uttar Pradesh"
  },
  {
    "pincode": "226003",
    "office": "Lucknow Chowk HO",
    "district": "LUCKNOW",
    "state": "Uttar Pradesh"
  },
  {
    "pincode": "226006",
    "office": "M N Colony SO",
    "district": "LUCKNOW",
    "state": "Uttar Pradesh"
  },
  {
    "pincode": "226021",
    "office": "Madiyaon BO",
    "district": "LUCKNOW",
    "state": "Uttar Pradesh"
  },
  {
    "pincode": "226006",
    "office": "Mahanagar SO",
    "district": "LUCKNOW",
    "state": "Uttar Pradesh"
  },
  {
    "pincode": "226020",
    "office": "Maharishi Vidya Mandir SO",
    "district": "LUCKNOW",
    "state": "Uttar Pradesh"
  },
  {
    "pincode": "226203",
    "office": "Mahigawan BO",
    "district": "LUCKNOW",
    "state": "Uttar Pradesh"
  },
  {
    "pincode": "226102",
    "office": "Mahmoodnagar BO",
    "district": "LUCKNOW",
    "state": "Uttar Pradesh"
  },
  {
    "pincode": "226501",
    "office": "Mahmoodpur BO",
    "district": "LUCKNOW",
    "state": "Uttar Pradesh"
  },
  {
    "pincode": "226203",
    "office": "Mahona BO",
    "district": "LUCKNOW",
    "state": "Uttar Pradesh"
  },
  {
    "pincode": "226010",
    "office": "Maleshemau BO",
    "district": "LUCKNOW",
    "state": "Uttar Pradesh"
  },
  {
    "pincode": "226101",
    "office": "Malha BO",
    "district": "LUCKNOW",
    "state": "Uttar Pradesh"
  },
  {
    "pincode": "226028",
    "office": "Malhaur BO",
    "district": "LUCKNOW",
    "state": "Uttar Pradesh"
  },
  {
    "pincode": "226102",
    "office": "Malihabad SO",
    "district": "LUCKNOW",
    "state": "Uttar Pradesh"
  },
  {
    "pincode": "226104",
    "office": "MALL SO",
    "district": "LUCKNOW",
    "state": "Uttar Pradesh"
  },
  {
    "pincode": "226011",
    "office": "MANAK NAGAR SO",
    "district": "LUCKNOW",
    "state": "Uttar Pradesh"
  },
  {
    "pincode": "226023",
    "office": "MANAS NAGAR SO",
    "district": "LUCKNOW",
    "state": "Uttar Pradesh"
  },
  {
    "pincode": "226003",
    "office": "Mansoor Nagar SO",
    "district": "LUCKNOW",
    "state": "Uttar Pradesh"
  },
  {
    "pincode": "226302",
    "office": "Mastipur BO",
    "district": "LUCKNOW",
    "state": "Uttar Pradesh"
  },
  {
    "pincode": "226002",
    "office": "Mati BO",
    "district": "LUCKNOW",
    "state": "Uttar Pradesh"
  },
  {
    "pincode": "226008",
    "office": "Maunda BO",
    "district": "LUCKNOW",
    "state": "Uttar Pradesh"
  },
  {
    "pincode": "226103",
    "office": "Mawai Kalan BO",
    "district": "LUCKNOW",
    "state": "Uttar Pradesh"
  },
  {
    "pincode": "226104",
    "office": "Mawai Khurd BO",
    "district": "LUCKNOW",
    "state": "Uttar Pradesh"
  },
  {
    "pincode": "226008",
    "office": "Mawai Padiyana BO",
    "district": "LUCKNOW",
    "state": "Uttar Pradesh"
  },
  {
    "pincode": "226003",
    "office": "Medical College SO",
    "district": "LUCKNOW",
    "state": "Uttar Pradesh"
  },
  {
    "pincode": "226302",
    "office": "Meerak Nagar BO",
    "district": "LUCKNOW",
    "state": "Uttar Pradesh"
  },
  {
    "pincode": "226002",
    "office": "Military Hospital SO",
    "district": "LUCKNOW",
    "state": "Uttar Pradesh"
  },
  {
    "pincode": "226004",
    "office": "Mill Road SO",
    "district": "LUCKNOW",
    "state": "Uttar Pradesh"
  },
  {
    "pincode": "226301",
    "office": "Mohanlalganj SO",
    "district": "LUCKNOW",
    "state": "Uttar Pradesh"
  },
  {
    "pincode": "226301",
    "office": "Mohari Khurd BO",
    "district": "LUCKNOW",
    "state": "Uttar Pradesh"
  },
  {
    "pincode": "226104",
    "office": "Munnu Khera BO",
    "district": "LUCKNOW",
    "state": "Uttar Pradesh"
  },
  {
    "pincode": "226104",
    "office": "Nabipanah BO",
    "district": "LUCKNOW",
    "state": "Uttar Pradesh"
  },
  {
    "pincode": "226003",
    "office": "Nadan Mahal BO",
    "district": "LUCKNOW",
    "state": "Uttar Pradesh"
  },
  {
    "pincode": "226007",
    "office": "NADWA SO",
    "district": "LUCKNOW",
    "state": "Uttar Pradesh"
  },
  {
    "pincode": "226303",
    "office": "Nagram SO",
    "district": "LUCKNOW",
    "state": "Uttar Pradesh"
  },
  {
    "pincode": "226016",
    "office": "Narain Nagar SO",
    "district": "LUCKNOW",
    "state": "Uttar Pradesh"
  },
  {
    "pincode": "226203",
    "office": "Narosa BO",
    "district": "LUCKNOW",
    "state": "Uttar Pradesh"
  },
  {
    "pincode": "226003",
    "office": "NAUBASTA SO LUCKNOW",
    "district": "LUCKNOW",
    "state": "Uttar Pradesh"
  },
  {
    "pincode": "226020",
    "office": "Navinmandi SO",
    "district": "LUCKNOW",
    "state": "Uttar Pradesh"
  },
  {
    "pincode": "226018",
    "office": "Naya Gaon SO",
    "district": "LUCKNOW",
    "state": "Uttar Pradesh"
  },
  {
    "pincode": "226401",
    "office": "Neewan BO",
    "district": "LUCKNOW",
    "state": "Uttar Pradesh"
  },
  {
    "pincode": "226018",
    "office": "New Ganeshganj SO",
    "district": "LUCKNOW",
    "state": "Uttar Pradesh"
  },
  {
    "pincode": "226007",
    "office": "New Hyderabad SO",
    "district": "LUCKNOW",
    "state": "Uttar Pradesh"
  },
  {
    "pincode": "226302",
    "office": "Nigohan SO",
    "district": "LUCKNOW",
    "state": "Uttar Pradesh"
  },
  {
    "pincode": "226002",
    "office": "Nilmatha BO",
    "district": "LUCKNOW",
    "state": "Uttar Pradesh"
  },
  {
    "pincode": "226020",
    "office": "Niralanagar SO",
    "district": "LUCKNOW",
    "state": "Uttar Pradesh"
  },
  {
    "pincode": "226203",
    "office": "Paharpur BO",
    "district": "LUCKNOW",
    "state": "Uttar Pradesh"
  },
  {
    "pincode": "226004",
    "office": "Pandariba SO",
    "district": "LUCKNOW",
    "state": "Uttar Pradesh"
  },
  {
    "pincode": "226104",
    "office": "Patauna BO",
    "district": "LUCKNOW",
    "state": "Uttar Pradesh"
  },
  {
    "pincode": "226005",
    "office": "Pawanpuri SO Lucknow",
    "district": "LUCKNOW",
    "state": "Uttar Pradesh"
  },
  {
    "pincode": "226008",
    "office": "Piparsand BO",
    "district": "LUCKNOW",
    "state": "Uttar Pradesh"
  },
  {
    "pincode": "226301",
    "office": "Purseni BO",
    "district": "LUCKNOW",
    "state": "Uttar Pradesh"
  },
  {
    "pincode": "226004",
    "office": "R A College SO",
    "district": "LUCKNOW",
    "state": "Uttar Pradesh"
  },
  {
    "pincode": "226018",
    "office": "R B Colony SO",
    "district": "LUCKNOW",
    "state": "Uttar Pradesh"
  },
  {
    "pincode": "226017",
    "office": "R G C Mill SO",
    "district": "LUCKNOW",
    "state": "Uttar Pradesh"
  },
  {
    "pincode": "226007",
    "office": "R P Line SO",
    "district": "LUCKNOW",
    "state": "Uttar Pradesh"
  },
  {
    "pincode": "226104",
    "office": "Raghunathpur BO",
    "district": "LUCKNOW",
    "state": "Uttar Pradesh"
  },
  {
    "pincode": "226103",
    "office": "Rahimabad SO",
    "district": "LUCKNOW",
    "state": "Uttar Pradesh"
  },
  {
    "pincode": "226401",
    "office": "Rahimnagar Padiyana BO",
    "district": "LUCKNOW",
    "state": "Uttar Pradesh"
  },
  {
    "pincode": "226202",
    "office": "Raitha BO",
    "district": "LUCKNOW",
    "state": "Uttar Pradesh"
  },
  {
    "pincode": "226003",
    "office": "Raja Bazar SO",
    "district": "LUCKNOW",
    "state": "Uttar Pradesh"
  },
  {
    "pincode": "226017",
    "office": "Rajajipuram SO",
    "district": "LUCKNOW",
    "state": "Uttar Pradesh"
  },
  {
    "pincode": "226026",
    "office": "Rajauli BO",
    "district": "LUCKNOW",
    "state": "Uttar Pradesh"
  },
  {
    "pincode": "226004",
    "office": "Rajendranagar SO Lucknow",
    "district": "LUCKNOW",
    "state": "Uttar Pradesh"
  },
  {
    "pincode": "226104",
    "office": "Ranipara BO",
    "district": "LUCKNOW",
    "state": "Uttar Pradesh"
  },
  {
    "pincode": "226028",
    "office": "Rasoolpur Saadat BO",
    "district": "LUCKNOW",
    "state": "Uttar Pradesh"
  },
  {
    "pincode": "226501",
    "office": "Rasoolpur Tikaniamau BO",
    "district": "LUCKNOW",
    "state": "Uttar Pradesh"
  },
  {
    "pincode": "226101",
    "office": "Rehman Khera BO",
    "district": "LUCKNOW",
    "state": "Uttar Pradesh"
  },
  {
    "pincode": "226103",
    "office": "Rusena BO",
    "district": "LUCKNOW",
    "state": "Uttar Pradesh"
  },
  {
    "pincode": "226003",
    "office": "Saadatganj SO Lucknow",
    "district": "LUCKNOW",
    "state": "Uttar Pradesh"
  },
  {
    "pincode": "226008",
    "office": "Sadrauna BO",
    "district": "LUCKNOW",
    "state": "Uttar Pradesh"
  },
  {
    "pincode": "226103",
    "office": "Sahinjana B O",
    "district": "LUCKNOW",
    "state": "Uttar Pradesh"
  },
  {
    "pincode": "226201",
    "office": "SAIRPUR BO",
    "district": "LUCKNOW",
    "state": "Uttar Pradesh"
  },
  {
    "pincode": "226104",
    "office": "Salehnagar BO",
    "district": "LUCKNOW",
    "state": "Uttar Pradesh"
  },
  {
    "pincode": "226501",
    "office": "Salempur BO",
    "district": "LUCKNOW",
    "state": "Uttar Pradesh"
  },
  {
    "pincode": "226303",
    "office": "Samesi BO",
    "district": "LUCKNOW",
    "state": "Uttar Pradesh"
  },
  {
    "pincode": "226026",
    "office": "Sanatan Dharam Vidya Peeth SO",
    "district": "LUCKNOW",
    "state": "Uttar Pradesh"
  },
  {
    "pincode": "226006",
    "office": "Sant Market SO",
    "district": "LUCKNOW",
    "state": "Uttar Pradesh"
  },
  {
    "pincode": "226203",
    "office": "Sarai Damu BO",
    "district": "LUCKNOW",
    "state": "Uttar Pradesh"
  },
  {
    "pincode": "226301",
    "office": "Sarai Gudauli BO",
    "district": "LUCKNOW",
    "state": "Uttar Pradesh"
  },
  {
    "pincode": "226003",
    "office": "Sarai Mali Khan SO",
    "district": "LUCKNOW",
    "state": "Uttar Pradesh"
  },
  {
    "pincode": "226201",
    "office": "Saraura BO",
    "district": "LUCKNOW",
    "state": "Uttar Pradesh"
  },
  {
    "pincode": "226003",
    "office": "Sarfraj SO",
    "district": "LUCKNOW",
    "state": "Uttar Pradesh"
  },
  {
    "pincode": "226008",
    "office": "Sarojini Nagar SO",
    "district": "LUCKNOW",
    "state": "Uttar Pradesh"
  },
  {
    "pincode": "226016",
    "office": "Sarvoday Nagar SO",
    "district": "LUCKNOW",
    "state": "Uttar Pradesh"
  },
  {
    "pincode": "226501",
    "office": "Sathwara BO",
    "district": "LUCKNOW",
    "state": "Uttar Pradesh"
  },
  {
    "pincode": "226016",
    "office": "Secd Indiranagar SO",
    "district": "LUCKNOW",
    "state": "Uttar Pradesh"
  },
  {
    "pincode": "226001",
    "office": "Secretariat SO Lucknow",
    "district": "LUCKNOW",
    "state": "Uttar Pradesh"
  },
  {
    "pincode": "226016",
    "office": "Sector B Indira Nagar SO",
    "district": "LUCKNOW",
    "state": "Uttar Pradesh"
  },
  {
    "pincode": "226014",
    "office": "Sgpgi SO",
    "district": "LUCKNOW",
    "state": "Uttar Pradesh"
  },
  {
    "pincode": "226002",
    "office": "Shia Lines SO",
    "district": "LUCKNOW",
    "state": "Uttar Pradesh"
  },
  {
    "pincode": "226018",
    "office": "Shivaji Marg SO Lucknow",
    "district": "LUCKNOW",
    "state": "Uttar Pradesh"
  },
  {
    "pincode": "226102",
    "office": "Sindhrawan BO",
    "district": "LUCKNOW",
    "state": "Uttar Pradesh"
  },
  {
    "pincode": "226005",
    "office": "Singar Nagar SO",
    "district": "LUCKNOW",
    "state": "Uttar Pradesh"
  },
  {
    "pincode": "226203",
    "office": "Singhamau BO",
    "district": "LUCKNOW",
    "state": "Uttar Pradesh"
  },
  {
    "pincode": "226301",
    "office": "Sisendi BO",
    "district": "LUCKNOW",
    "state": "Uttar Pradesh"
  },
  {
    "pincode": "226008",
    "office": "SNI AREA SO",
    "district": "LUCKNOW",
    "state": "Uttar Pradesh"
  },
  {
    "pincode": "226005",
    "office": "Sujanpura SO",
    "district": "LUCKNOW",
    "state": "Uttar Pradesh"
  },
  {
    "pincode": "226018",
    "office": "Sunderbagh SO",
    "district": "LUCKNOW",
    "state": "Uttar Pradesh"
  },
  {
    "pincode": "226030",
    "office": "Sushant Golf City SO",
    "district": "LUCKNOW",
    "state": "Uttar Pradesh"
  },
  {
    "pincode": "226103",
    "office": "Suspan B O",
    "district": "LUCKNOW",
    "state": "Uttar Pradesh"
  },
  {
    "pincode": "226003",
    "office": "T Tib BO",
    "district": "LUCKNOW",
    "state": "Uttar Pradesh"
  },
  {
    "pincode": "226003",
    "office": "Thakurganj BO",
    "district": "LUCKNOW",
    "state": "Uttar Pradesh"
  },
  {
    "pincode": "226104",
    "office": "Thari BO",
    "district": "LUCKNOW",
    "state": "Uttar Pradesh"
  },
  {
    "pincode": "226104",
    "office": "Thawar BO",
    "district": "LUCKNOW",
    "state": "Uttar Pradesh"
  },
  {
    "pincode": "226401",
    "office": "Tirwa BO",
    "district": "LUCKNOW",
    "state": "Uttar Pradesh"
  },
  {
    "pincode": "226002",
    "office": "Topkhana Bazar SO",
    "district": "LUCKNOW",
    "state": "Uttar Pradesh"
  },
  {
    "pincode": "226020",
    "office": "Triveni Nagar SO",
    "district": "LUCKNOW",
    "state": "Uttar Pradesh"
  },
  {
    "pincode": "226104",
    "office": "Umrawal BO",
    "district": "LUCKNOW",
    "state": "Uttar Pradesh"
  },
  {
    "pincode": "226027",
    "office": "UPG Camp SO",
    "district": "LUCKNOW",
    "state": "Uttar Pradesh"
  },
  {
    "pincode": "226203",
    "office": "Usarana BO",
    "district": "LUCKNOW",
    "state": "Uttar Pradesh"
  },
  {
    "pincode": "226302",
    "office": "Utrawan BO",
    "district": "LUCKNOW",
    "state": "Uttar Pradesh"
  },
  {
    "pincode": "226002",
    "office": "Utrethia BO",
    "district": "LUCKNOW",
    "state": "Uttar Pradesh"
  },
  {
    "pincode": "226003",
    "office": "Victoriaganj SO",
    "district": "LUCKNOW",
    "state": "Uttar Pradesh"
  },
  {
    "pincode": "226022",
    "office": "Vikas Nagar SO",
    "district": "LUCKNOW",
    "state": "Uttar Pradesh"
  },
  {
    "pincode": "226010",
    "office": "Vineet Khand SO",
    "district": "LUCKNOW",
    "state": "Uttar Pradesh"
  },
  {
    "pincode": "226010",
    "office": "VISHAL KHAND SO",
    "district": "LUCKNOW",
    "state": "Uttar Pradesh"
  },
  {
    "pincode": "226010",
    "office": "Vishwas Khand SO",
    "district": "LUCKNOW",
    "state": "Uttar Pradesh"
  },
  {
    "pincode": "226029",
    "office": "Vrindavan Colony SO",
    "district": "LUCKNOW",
    "state": "Uttar Pradesh"
  },
  {
    "pincode": "226018",
    "office": "Wazirganj SO Lucknow",
    "district": "LUCKNOW",
    "state": "Uttar Pradesh"
  },
  {
    "pincode": "226003",
    "office": "Yahiaganj SO",
    "district": "LUCKNOW",
    "state": "Uttar Pradesh"
  },
  {
    "pincode": "226001",
    "office": "Lucknow GPO",
    "district": "LUCKNOW",
    "state": "Uttar Pradesh"
  }
]
